[{"OBJECT_NAME":"TISAT 1","OBJECT_ID":"2010-035E","EPOCH":"2026-03-09T18:10:07.877568","MEAN_MOTION":15.27628633,"ECCENTRICITY":0.00013432,"INCLINATION":98.0645,"RA_OF_ASC_NODE":6.8512,"ARG_OF_PERICENTER":159.303,"MEAN_ANOMALY":200.8262,"EPHEMERIS_TYPE":0,"CLASSIFICATION_TYPE":"U","NORAD_CAT_ID":36799,"ELEMENT_SET_NO":999,"REV_AT_EPOCH":85250,"BSTAR":0.00091004793,"MEAN_MOTION_DOT":0.00024554,"MEAN_MOTION_DDOT":0},{"OBJECT_NAME":"STARLINK-33548","OBJECT_ID":"2024-237P","EPOCH":"2026-03-09T09:40:43.300416","MEAN_MOTION":15.27590947,"ECCENTRICITY":4.913e-5,"INCLINATION":42.996,"RA_OF_ASC_NODE":207.1165,"ARG_OF_PERICENTER":235.2252,"MEAN_ANOMALY":124.8554,"EPHEMERIS_TYPE":0,"CLASSIFICATION_TYPE":"U","NORAD_CAT_ID":62280,"ELEMENT_SET_NO":999,"REV_AT_EPOCH":7127,"BSTAR":0.001581204,"MEAN_MOTION_DOT":0.00043521,"MEAN_MOTION_DDOT":0}]
